NORAD_CAT_ID,OBJECT_NAME,OBJECT_TYPE,EPOCH,MEAN_MOTION,ECCENTRICITY,INCLINATION,RA_OF_ASC_NODE,ARG_OF_PERICENTER,MEAN_ANOMALY,BSTAR,MEAN_MOTION_DOT,MEAN_MOTION_DDOT,TLE_LINE0,TLE_LINE1,TLE_LINE2,SEMIMAJOR_AXIS,PERIOD,APOGEE,PERIGEE,DECAYED
53626.0,STARLINK-4554,PAYLOAD,2024-07-05 04:35:29,15.08839701,0.000116,53.2166,103.3723,75.9016,284.2105,0.00021225,3.092e-05,0.0,0 STARLINK-4554,1 53626U 22104AQ  24187.19131566  .00003092  00000-0  21225-3 0  9994,2 53626  53.2166 103.3723 0001160  75.9016 284.2105 15.08839701102605,6917.881,95.438,540.549,538.944,0.0
53626.0,STARLINK-4554,PAYLOAD,2024-07-05 10:57:02,15.08850232,0.0001191,53.2172,102.1842,79.1659,280.9467,0.00072738,0.0001131,0.0,0 STARLINK-4554,1 53626U 22104AQ  24187.45627399  .00011310  00000-0  72738-3 0  9994,2 53626  53.2172 102.1842 0001191  79.1659 280.9467 15.08850232103331,6917.849,95.437,540.538,538.89,0.0
53626.0,STARLINK-4554,PAYLOAD,2024-07-05 22:04:44,15.08834085,0.0001086,53.2162,100.1028,86.6907,273.421,0.00028494,4.249e-05,0.0,0 STARLINK-4554,1 53626U 22104AQ  24187.91996102  .00004249  00000-0  28494-3 0  9999,2 53626  53.2162 100.1028 0001086  86.6907 273.4210 15.08834085103405,6917.898,95.438,540.515,539.012,0.0
53626.0,STARLINK-4554,PAYLOAD,2024-07-06 04:26:17,15.08838239,9.68e-05,53.216,98.9134,81.9785,278.1317,0.0014343,0.00022611,0.0,0 STARLINK-4554,1 53626U 22104AQ  24188.18492303  .00022611  00000-0  14343-2 0  9993,2 53626  53.2160  98.9134 0000968  81.9785 278.1317 15.08838239102757,6917.886,95.438,540.42,539.081,0.0
53626.0,STARLINK-4554,PAYLOAD,2024-07-06 18:44:45,15.0884427,0.0001028,53.2161,96.2373,92.7987,267.3123,0.0012012,0.00018883,0.0,0 STARLINK-4554,1 53626U 22104AQ  24188.78108728  .00018883  00000-0  12012-2 0  9991,2 53626  53.2161  96.2373 0001028  92.7987 267.3123 15.08844270102843,6917.867,95.437,540.443,539.021,0.0
53626.0,STARLINK-4554,PAYLOAD,2024-07-06 21:55:32,15.08840867,0.0001071,53.2162,95.643,61.2813,298.8287,0.0010645,0.00016694,0.0,0 STARLINK-4554,1 53626U 22104AQ  24188.91356911  .00016694  00000-0  10645-2 0  9993,2 53626  53.2162  95.6430 0001071  61.2813 298.8287 15.08840867103555,6917.878,95.437,540.484,539.002,0.0
53626.0,STARLINK-4554,PAYLOAD,2024-07-07 02:41:41,15.08836344,0.0001084,53.2161,94.7497,82.1458,277.9658,0.00065031,0.00010076,0.0,0 STARLINK-4554,1 53626U 22104AQ  24189.11228959  .00010076  00000-0  65031-3 0  9994,2 53626  53.2161  94.7497 0001084  82.1458 277.9658 15.08836344102899,6917.892,95.438,540.506,539.007,0.0
53626.0,STARLINK-4554,PAYLOAD,2024-07-08 10:29:23,15.08861723,0.0001083,53.215,88.8022,69.9091,290.2018,0.00060791,9.406e-05,0.0,0 STARLINK-4554,1 53626U 22104AQ  24190.43708003  .00009406  00000-0  60791-3 0  9997,2 53626  53.2150  88.8022 0001083  69.9091 290.2018 15.08861723103090,6917.814,95.436,540.428,538.93,0.0
53626.0,STARLINK-4554,PAYLOAD,2024-07-08 23:12:29,15.0884153,9.25e-05,53.2151,86.4239,80.7724,279.3372,-4.214e-06,-3.55e-06,0.0,0 STARLINK-4554,1 53626U 22104AQ  24190.96700380 -.00000355  00000-0 -42140-5 0  9991,2 53626  53.2151  86.4239 0000925  80.7724 279.3372 15.08841530103863,6917.876,95.437,540.381,539.101,0.0
53626.0,STARLINK-4554,PAYLOAD,2024-07-09 00:47:52,15.08849442,0.0001153,53.2148,86.1267,80.6216,279.4906,0.00024447,3.606e-05,0.0,0 STARLINK-4554,1 53626U 22104AQ  24191.03324246  .00003606  00000-0  24447-3 0  9991,2 53626  53.2148  86.1267 0001153  80.6216 279.4906 15.08849442103185,6917.852,95.437,540.514,538.919,0.0
53626.0,STARLINK-4554,PAYLOAD,2024-07-09 10:20:10,15.08852595,0.0001177,53.2147,84.3426,78.5367,281.5757,0.00064892,0.00010058,0.0,0 STARLINK-4554,1 53626U 22104AQ  24191.43068047  .00010058  00000-0  64892-3 0  9996,2 53626  53.2147  84.3426 0001177  78.5367 281.5757 15.08852595103934,6917.842,95.437,540.521,538.893,0.0
53626.0,STARLINK-4554,PAYLOAD,2024-07-09 21:27:53,15.08837536,0.0002531,53.2155,82.2572,92.1918,267.9364,0.00027741,4.129e-05,0.0,0 STARLINK-4554,1 53626U 22104AQ  24191.89436867  .00004129  00000-0  27741-3 0  9999,2 53626  53.2155  82.2572 0002531  92.1918 267.9364 15.08837536104000,6917.888,95.438,541.504,538.002,0.0
53626.0,STARLINK-4554,PAYLOAD,2024-07-09 23:03:16,15.088341,0.0001579,53.2168,81.9631,82.685,277.4321,2.3393e-05,8.4e-07,0.0,0 STARLINK-4554,1 53626U 22104AQ  24191.96060714  .00000084  00000-0  23393-4 0  9997,2 53626  53.2168  81.9631 0001579  82.6850 277.4321 15.08834100103323,6917.898,95.438,540.856,538.671,0.0
53626.0,STARLINK-4554,PAYLOAD,2024-07-10 10:10:58,15.08844004,0.0001551,53.217,79.8815,86.7814,273.3356,0.00053535,8.243e-05,0.0,0 STARLINK-4554,1 53626U 22104AQ  24192.42428750  .00008243  00000-0  53535-3 0  9992,2 53626  53.2170  79.8815 0001551  86.7814 273.3356 15.08844004104082,6917.868,95.437,540.806,538.66,0.0
53626.0,STARLINK-4554,PAYLOAD,2024-07-10 21:18:40,15.0884187,0.0001433,53.2155,77.7987,113.3197,246.7946,0.00038576,5.857e-05,0.0,0 STARLINK-4554,1 53626U 22104AQ  24192.88796841  .00005857  00000-0  38576-3 0  9997,2 53626  53.2155  77.7987 0001433 113.3197 246.7946 15.08841870104157,6917.875,95.437,540.731,538.748,0.0
53626.0,STARLINK-4554,PAYLOAD,2024-07-10 22:54:03,15.08842148,0.0001555,53.2169,77.4991,117.7768,242.3382,0.0003709,5.62e-05,0.0,0 STARLINK-4554,1 53626U 22104AQ  24192.95420813  .00005620  00000-0  37090-3 0  9996,2 53626  53.2169  77.4991 0001555 117.7768 242.3382 15.08842148103470,6917.874,95.437,540.815,538.663,0.0
53626.0,STARLINK-4554,PAYLOAD,2024-07-12 21:00:14,15.08839934,0.0001367,53.2157,68.8787,100.1157,259.9989,9.6769e-05,1.252e-05,0.0,0 STARLINK-4554,1 53626U 22104AQ  24194.87517059  .00001252  00000-0  96769-4 0  9994,2 53626  53.2157  68.8787 0001367 100.1157 259.9989 15.08839934103761,6917.881,95.438,540.691,538.8,0.0
53626.0,STARLINK-4554,PAYLOAD,2024-07-12 22:35:38,15.08838426,0.0001345,53.2156,68.5821,96.4946,263.62,9.8237e-05,1.276e-05,0.0,0 STARLINK-4554,1 53626U 22104AQ  24194.94141205  .00001276  00000-0  98237-4 0  9996,2 53626  53.2156  68.5821 0001345  96.4946 263.6200 15.08838426104466,6917.885,95.438,540.681,538.82,0.0
53626.0,STARLINK-4554,PAYLOAD,2024-07-13 08:07:56,15.08851016,0.0001447,53.2167,66.7996,97.8673,262.2484,0.00019251,2.778e-05,0.0,0 STARLINK-4554,1 53626U 22104AQ  24195.33884399  .00002778  00000-0  19251-3 0  9994,2 53626  53.2167  66.7996 0001447  97.8673 262.2484 15.08851016103835,6917.847,95.437,540.713,538.711,0.0
53626.0,STARLINK-4554,PAYLOAD,2024-07-13 20:51:02,15.08832183,0.0001399,53.2165,64.4191,88.9534,271.1619,-3.6508e-06,-3.46e-06,0.0,0 STARLINK-4554,1 53626U 22104AQ  24195.86877492 -.00000346  00000-0 -36508-5 0  9995,2 53626  53.2165  64.4191 0001399  88.9534 271.1619 15.08832183103910,6917.904,95.438,540.737,538.801,0.0
53626.0,STARLINK-4554,PAYLOAD,2024-07-13 22:26:25,15.08835645,0.000147,53.2169,64.1249,98.365,261.7509,3.6245e-05,2.89e-06,0.0,0 STARLINK-4554,1 53626U 22104AQ  24195.93501351  .00000289  00000-0  36245-4 0  9992,2 53626  53.2169  64.1249 0001470  98.3650 261.7509 15.08835645104616,6917.894,95.438,540.776,538.742,0.0
53626.0,STARLINK-4554,PAYLOAD,2024-07-14 00:01:48,15.0884237,0.0001299,53.2156,63.8231,88.4712,271.6429,0.00014135,1.963e-05,0.0,0 STARLINK-4554,1 53626U 22104AQ  24196.00125043  .00001963  00000-0  14135-3 0  9994,2 53626  53.2156  63.8231 0001299  88.4712 271.6429 15.08842370103935,6917.873,95.437,540.637,538.84,0.0
53626.0,STARLINK-4554,PAYLOAD,2024-07-14 07:58:43,15.08844594,0.0001281,53.2156,62.3362,87.5597,272.5542,0.00014929,2.089e-05,0.0,0 STARLINK-4554,1 53626U 22104AQ  24196.33244872  .00002089  00000-0  14929-3 0  9993,2 53626  53.2156  62.3362 0001281  87.5597 272.5542 15.08844594104674,6917.866,95.437,540.618,538.845,0.0
53626.0,STARLINK-4554,PAYLOAD,2024-07-14 20:41:49,15.08833789,0.000157,53.2164,59.9585,92.6622,267.455,1.1856e-05,-9.9e-07,0.0,0 STARLINK-4554,1 53626U 22104AQ  24196.86237543 -.00000099  00000-0  11856-4 0  9995,2 53626  53.2164  59.9585 0001570  92.6622 267.4550 15.08833789104068,6917.899,95.438,540.85,538.678,0.0
53626.0,STARLINK-4554,PAYLOAD,2024-07-14 22:17:12,15.08839979,0.0001366,53.2168,59.6605,89.3253,270.7896,0.00013104,1.798e-05,0.0,0 STARLINK-4554,1 53626U 22104AQ  24196.92861388  .00001798  00000-0  13104-3 0  9995,2 53626  53.2168  59.6605 0001366  89.3253 270.7896 15.08839979104762,6917.88,95.438,540.69,538.8,0.0
53626.0,STARLINK-4554,PAYLOAD,2024-07-15 07:49:30,15.08856124,0.0001418,53.2165,57.8777,87.8171,272.2984,0.00023253,3.416e-05,0.0,0 STARLINK-4554,1 53626U 22104AQ  24197.32604282  .00003416  00000-0  23253-3 0  9993,2 53626  53.2165  57.8777 0001418  87.8171 272.2984 15.08856124104136,6917.831,95.437,540.677,538.715,0.0
53626.0,STARLINK-4554,PAYLOAD,2024-07-15 14:11:03,15.08830246,0.0001931,53.2161,56.6862,83.1246,276.9966,-0.00023409,-4.011e-05,0.0,0 STARLINK-4554,1 53626U 22104AQ  24197.59101594 -.00004011  00000-0 -23409-3 0  9997,2 53626  53.2161  56.6862 0001931  83.1246 276.9966 15.08830246104864,6917.91,95.438,541.111,538.439,0.0
53626.0,STARLINK-4554,PAYLOAD,2024-07-15 20:32:36,15.08830574,0.0001644,53.2177,55.4993,90.0012,270.1168,-8.6779e-05,-1.669e-05,0.0,0 STARLINK-4554,1 53626U 22104AQ  24197.85597744 -.00001669  00000-0 -86779-4 0  9998,2 53626  53.2177  55.4993 0001644  90.0012 270.1168 15.08830574104215,6917.909,95.438,540.912,538.637,0.0
53626.0,STARLINK-4554,PAYLOAD,2024-07-15 22:07:59,15.08832633,0.0001523,53.2169,55.2007,86.2864,273.8303,-6.2955e-05,-1.29e-05,0.0,0 STARLINK-4554,1 53626U 22104AQ  24197.92221621 -.00001290  00000-0 -62955-4 0  9994,2 53626  53.2169  55.2007 0001523  86.2864 273.8303 15.08832633104914,6917.903,95.438,540.822,538.714,0.0
53626.0,STARLINK-4554,PAYLOAD,2024-07-15 23:43:22,15.08837929,0.0001518,53.217,54.903,85.4776,274.6389,1.5416e-05,-4.3e-07,0.0,0 STARLINK-4554,1 53626U 22104AQ  24197.98845370 -.00000043  00000-0  15416-4 0  9997,2 53626  53.2170  54.9030 0001518  85.4776 274.6389 15.08837929104236,6917.887,95.438,540.802,538.702,0.0
